<?xml version="1.0" encoding="UTF-8"?>
<gpx version="1.1" creator="trailpilot-test" xmlns="http://www.topografix.com/GPX/1/1">
<metadata><name>silent gap breaks test</name></metadata><trk><name>silent gap breaks test</name><trkseg>
<trkpt lat="37.400000" lon="-83.700000"><ele>1150.0</ele><time>2026-02-28T11:34:00Z</time></trkpt>
<trkpt lat="37.400550" lon="-83.699300"><ele>1150.6</ele><time>2026-02-28T11:34:15Z</time></trkpt>
<trkpt lat="37.401100" lon="-83.698586"><ele>1151.2</ele><time>2026-02-28T11:34:30Z</time></trkpt>
<trkpt lat="37.401650" lon="-83.697858"><ele>1151.8</ele><time>2026-02-28T11:34:45Z</time></trkpt>
<trkpt lat="37.402200" lon="-83.697116"><ele>1152.4</ele><time>2026-02-28T11:35:00Z</time></trkpt>
<trkpt lat="37.402750" lon="-83.696361"><ele>1153.0</ele><time>2026-02-28T11:35:15Z</time></trkpt>
<trkpt lat="37.403300" lon="-83.695591"><ele>1153.6</ele><time>2026-02-28T11:35:30Z</time></trkpt>
<trkpt lat="37.403850" lon="-83.694809"><ele>1154.2</ele><time>2026-02-28T11:35:45Z</time></trkpt>
<trkpt lat="37.404400" lon="-83.694013"><ele>1154.8</ele><time>2026-02-28T11:36:00Z</time></trkpt>
<trkpt lat="37.404950" lon="-83.693204"><ele>1155.4</ele><time>2026-02-28T11:36:15Z</time></trkpt>
<trkpt lat="37.405500" lon="-83.692382"><ele>1156.0</ele><time>2026-02-28T11:36:30Z</time></trkpt>
<trkpt lat="37.406050" lon="-83.691547"><ele>1156.6</ele><time>2026-02-28T11:36:45Z</time></trkpt>
<trkpt lat="37.406600" lon="-83.690701"><ele>1157.2</ele><time>2026-02-28T11:37:00Z</time></trkpt>
<trkpt lat="37.407150" lon="-83.689843"><ele>1157.8</ele><time>2026-02-28T11:37:15Z</time></trkpt>
<trkpt lat="37.407700" lon="-83.688974"><ele>1158.4</ele><time>2026-02-28T11:37:30Z</time></trkpt>
<trkpt lat="37.408250" lon="-83.688093"><ele>1159.0</ele><time>2026-02-28T11:37:45Z</time></trkpt>
<trkpt lat="37.408800" lon="-83.687202"><ele>1159.6</ele><time>2026-02-28T11:38:00Z</time></trkpt>
<trkpt lat="37.409350" lon="-83.686301"><ele>1160.2</ele><time>2026-02-28T11:38:15Z</time></trkpt>
<trkpt lat="37.409900" lon="-83.685391"><ele>1160.8</ele><time>2026-02-28T11:38:30Z</time></trkpt>
<trkpt lat="37.410450" lon="-83.684472"><ele>1161.4</ele><time>2026-02-28T11:38:45Z</time></trkpt>
<trkpt lat="37.411000" lon="-83.683544"><ele>1162.0</ele><time>2026-02-28T11:39:00Z</time></trkpt>
<trkpt lat="37.411550" lon="-83.682608"><ele>1162.6</ele><time>2026-02-28T11:39:15Z</time></trkpt>
<trkpt lat="37.412100" lon="-83.681666"><ele>1163.2</ele><time>2026-02-28T11:39:30Z</time></trkpt>
<trkpt lat="37.412650" lon="-83.680716"><ele>1163.8</ele><time>2026-02-28T11:39:45Z</time></trkpt>
<trkpt lat="37.413200" lon="-83.679760"><ele>1164.4</ele><time>2026-02-28T11:40:00Z</time></trkpt>
<trkpt lat="37.413750" lon="-83.678799"><ele>1165.0</ele><time>2026-02-28T11:40:15Z</time></trkpt>
<trkpt lat="37.414300" lon="-83.677834"><ele>1165.6</ele><time>2026-02-28T11:40:30Z</time></trkpt>
<trkpt lat="37.414850" lon="-83.676864"><ele>1166.2</ele><time>2026-02-28T11:40:45Z</time></trkpt>
<trkpt lat="37.415400" lon="-83.675891"><ele>1166.8</ele><time>2026-02-28T11:41:00Z</time></trkpt>
<trkpt lat="37.415950" lon="-83.674915"><ele>1167.4</ele><time>2026-02-28T11:41:15Z</time></trkpt>
<trkpt lat="37.416500" lon="-83.673937"><ele>1168.0</ele><time>2026-02-28T11:41:30Z</time></trkpt>
<trkpt lat="37.417050" lon="-83.672958"><ele>1168.6</ele><time>2026-02-28T11:41:45Z</time></trkpt>
<trkpt lat="37.417600" lon="-83.671978"><ele>1169.2</ele><time>2026-02-28T11:42:00Z</time></trkpt>
<trkpt lat="37.418150" lon="-83.670998"><ele>1169.8</ele><time>2026-02-28T11:42:15Z</time></trkpt>
<trkpt lat="37.418700" lon="-83.670019"><ele>1170.4</ele><time>2026-02-28T11:42:30Z</time></trkpt>
<trkpt lat="37.419250" lon="-83.669041"><ele>1171.0</ele><time>2026-02-28T11:42:45Z</time></trkpt>
<trkpt lat="37.419800" lon="-83.668065"><ele>1171.6</ele><time>2026-02-28T11:43:00Z</time></trkpt>
<trkpt lat="37.420350" lon="-83.667093"><ele>1172.2</ele><time>2026-02-28T11:43:15Z</time></trkpt>
<trkpt lat="37.420900" lon="-83.666124"><ele>1172.8</ele><time>2026-02-28T11:43:30Z</time></trkpt>
<trkpt lat="37.421450" lon="-83.665159"><ele>1173.4</ele><time>2026-02-28T11:43:45Z</time></trkpt>
<trkpt lat="37.422000" lon="-83.664199"><ele>1174.0</ele><time>2026-02-28T11:44:00Z</time></trkpt>
<trkpt lat="37.422550" lon="-83.663244"><ele>1174.6</ele><time>2026-02-28T11:44:15Z</time></trkpt>
<trkpt lat="37.423100" lon="-83.662295"><ele>1175.2</ele><time>2026-02-28T11:44:30Z</time></trkpt>
<trkpt lat="37.423650" lon="-83.661354"><ele>1175.8</ele><time>2026-02-28T11:44:45Z</time></trkpt>
<trkpt lat="37.424200" lon="-83.660419"><ele>1176.4</ele><time>2026-02-28T11:45:00Z</time></trkpt>
<trkpt lat="37.424750" lon="-83.659493"><ele>1177.0</ele><time>2026-02-28T11:45:15Z</time></trkpt>
<trkpt lat="37.425300" lon="-83.658575"><ele>1177.6</ele><time>2026-02-28T11:45:30Z</time></trkpt>
<trkpt lat="37.425850" lon="-83.657666"><ele>1178.2</ele><time>2026-02-28T11:45:45Z</time></trkpt>
<trkpt lat="37.426400" lon="-83.656767"><ele>1178.8</ele><time>2026-02-28T11:46:00Z</time></trkpt>
<trkpt lat="37.426950" lon="-83.655878"><ele>1179.4</ele><time>2026-02-28T11:46:15Z</time></trkpt>
<trkpt lat="37.427500" lon="-83.654999"><ele>1180.0</ele><time>2026-02-28T11:46:30Z</time></trkpt>
<trkpt lat="37.428050" lon="-83.654132"><ele>1180.6</ele><time>2026-02-28T11:46:45Z</time></trkpt>
<trkpt lat="37.428600" lon="-83.653276"><ele>1181.2</ele><time>2026-02-28T11:47:00Z</time></trkpt>
<trkpt lat="37.429150" lon="-83.652431"><ele>1181.8</ele><time>2026-02-28T11:47:15Z</time></trkpt>
<trkpt lat="37.429700" lon="-83.651599"><ele>1182.4</ele><time>2026-02-28T11:47:30Z</time></trkpt>
<trkpt lat="37.430250" lon="-83.650780"><ele>1183.0</ele><time>2026-02-28T11:47:45Z</time></trkpt>
<trkpt lat="37.430800" lon="-83.649973"><ele>1183.6</ele><time>2026-02-28T11:48:00Z</time></trkpt>
<trkpt lat="37.431350" lon="-83.649179"><ele>1184.2</ele><time>2026-02-28T11:48:15Z</time></trkpt>
<trkpt lat="37.431900" lon="-83.648398"><ele>1184.8</ele><time>2026-02-28T11:48:30Z</time></trkpt>
<trkpt lat="37.432450" lon="-83.647631"><ele>1185.4</ele><time>2026-02-28T11:48:45Z</time></trkpt>
<trkpt lat="37.433000" lon="-83.646878"><ele>1186.0</ele><time>2026-02-28T11:49:00Z</time></trkpt>
<trkpt lat="37.433550" lon="-83.646139"><ele>1186.6</ele><time>2026-02-28T11:49:15Z</time></trkpt>
<trkpt lat="37.434100" lon="-83.645413"><ele>1187.2</ele><time>2026-02-28T11:49:30Z</time></trkpt>
<trkpt lat="37.434650" lon="-83.644701"><ele>1187.8</ele><time>2026-02-28T11:49:45Z</time></trkpt>
<trkpt lat="37.435200" lon="-83.644004"><ele>1188.4</ele><time>2026-02-28T11:50:00Z</time></trkpt>
<trkpt lat="37.435750" lon="-83.643320"><ele>1189.0</ele><time>2026-02-28T11:50:15Z</time></trkpt>
<trkpt lat="37.436300" lon="-83.642650"><ele>1189.6</ele><time>2026-02-28T11:50:30Z</time></trkpt>
<trkpt lat="37.436850" lon="-83.641995"><ele>1190.2</ele><time>2026-02-28T11:50:45Z</time></trkpt>
<trkpt lat="37.437400" lon="-83.641352"><ele>1190.8</ele><time>2026-02-28T11:51:00Z</time></trkpt>
<trkpt lat="37.437950" lon="-83.640724"><ele>1191.4</ele><time>2026-02-28T11:51:15Z</time></trkpt>
<trkpt lat="37.438500" lon="-83.640109"><ele>1192.0</ele><time>2026-02-28T11:51:30Z</time></trkpt>
<trkpt lat="37.439050" lon="-83.639507"><ele>1192.6</ele><time>2026-02-28T11:51:45Z</time></trkpt>
<trkpt lat="37.439600" lon="-83.638918"><ele>1193.2</ele><time>2026-02-28T11:52:00Z</time></trkpt>
<trkpt lat="37.440150" lon="-83.638342"><ele>1193.8</ele><time>2026-02-28T11:52:15Z</time></trkpt>
<trkpt lat="37.440700" lon="-83.637779"><ele>1194.4</ele><time>2026-02-28T11:52:30Z</time></trkpt>
<trkpt lat="37.441250" lon="-83.637227"><ele>1195.0</ele><time>2026-02-28T11:52:45Z</time></trkpt>
<trkpt lat="37.441800" lon="-83.636687"><ele>1195.6</ele><time>2026-02-28T11:53:00Z</time></trkpt>
<trkpt lat="37.442350" lon="-83.636158"><ele>1196.2</ele><time>2026-02-28T11:53:15Z</time></trkpt>
<trkpt lat="37.442900" lon="-83.635641"><ele>1196.8</ele><time>2026-02-28T11:53:30Z</time></trkpt>
<trkpt lat="37.443450" lon="-83.635133"><ele>1197.4</ele><time>2026-02-28T11:53:45Z</time></trkpt>
<trkpt lat="37.444000" lon="-83.634636"><ele>1198.0</ele><time>2026-02-28T11:54:00Z</time></trkpt>
<trkpt lat="37.444550" lon="-83.634147"><ele>1198.6</ele><time>2026-02-28T11:54:15Z</time></trkpt>
<trkpt lat="37.445100" lon="-83.633668"><ele>1199.2</ele><time>2026-02-28T11:54:30Z</time></trkpt>
<trkpt lat="37.445650" lon="-83.633197"><ele>1199.8</ele><time>2026-02-28T11:54:45Z</time></trkpt>
<trkpt lat="37.446200" lon="-83.632734"><ele>1200.4</ele><time>2026-02-28T11:55:00Z</time></trkpt>
<trkpt lat="37.446750" lon="-83.632278"><ele>1201.0</ele><time>2026-02-28T11:55:15Z</time></trkpt>
<trkpt lat="37.447300" lon="-83.631829"><ele>1201.6</ele><time>2026-02-28T11:55:30Z</time></trkpt>
<trkpt lat="37.447850" lon="-83.631385"><ele>1202.2</ele><time>2026-02-28T11:55:45Z</time></trkpt>
<trkpt lat="37.448400" lon="-83.630947"><ele>1202.8</ele><time>2026-02-28T11:56:00Z</time></trkpt>
<trkpt lat="37.448950" lon="-83.630514"><ele>1203.4</ele><time>2026-02-28T11:56:15Z</time></trkpt>
<trkpt lat="37.449500" lon="-83.630084"><ele>1204.0</ele><time>2026-02-28T11:56:30Z</time></trkpt>
<trkpt lat="37.450050" lon="-83.629658"><ele>1204.6</ele><time>2026-02-28T11:56:45Z</time></trkpt>
<trkpt lat="37.450600" lon="-83.629234"><ele>1205.2</ele><time>2026-02-28T11:57:00Z</time></trkpt>
<trkpt lat="37.451150" lon="-83.628812"><ele>1205.8</ele><time>2026-02-28T11:57:15Z</time></trkpt>
<trkpt lat="37.451700" lon="-83.628392"><ele>1206.4</ele><time>2026-02-28T11:57:30Z</time></trkpt>
<trkpt lat="37.452250" lon="-83.627972"><ele>1207.0</ele><time>2026-02-28T11:57:45Z</time></trkpt>
<trkpt lat="37.452800" lon="-83.627552"><ele>1207.6</ele><time>2026-02-28T11:58:00Z</time></trkpt>
<trkpt lat="37.453350" lon="-83.627131"><ele>1208.2</ele><time>2026-02-28T11:58:15Z</time></trkpt>
<trkpt lat="37.453900" lon="-83.626708"><ele>1208.8</ele><time>2026-02-28T11:58:30Z</time></trkpt>
<trkpt lat="37.454450" lon="-83.626283"><ele>1209.4</ele><time>2026-02-28T11:58:45Z</time></trkpt>
<trkpt lat="37.455000" lon="-83.625855"><ele>1210.0</ele><time>2026-02-28T11:59:00Z</time></trkpt>
<trkpt lat="37.455550" lon="-83.625424"><ele>1210.6</ele><time>2026-02-28T12:39:00Z</time></trkpt>
<trkpt lat="37.456100" lon="-83.624724"><ele>1211.2</ele><time>2026-02-28T12:39:15Z</time></trkpt>
<trkpt lat="37.456650" lon="-83.624010"><ele>1211.8</ele><time>2026-02-28T12:39:30Z</time></trkpt>
<trkpt lat="37.457200" lon="-83.623282"><ele>1212.4</ele><time>2026-02-28T12:39:45Z</time></trkpt>
<trkpt lat="37.457750" lon="-83.622540"><ele>1213.0</ele><time>2026-02-28T12:40:00Z</time></trkpt>
<trkpt lat="37.458300" lon="-83.621784"><ele>1213.6</ele><time>2026-02-28T12:40:15Z</time></trkpt>
<trkpt lat="37.458850" lon="-83.621015"><ele>1214.2</ele><time>2026-02-28T12:40:30Z</time></trkpt>
<trkpt lat="37.459400" lon="-83.620232"><ele>1214.8</ele><time>2026-02-28T12:40:45Z</time></trkpt>
<trkpt lat="37.459950" lon="-83.619436"><ele>1215.4</ele><time>2026-02-28T12:41:00Z</time></trkpt>
<trkpt lat="37.460500" lon="-83.618627"><ele>1216.0</ele><time>2026-02-28T12:41:15Z</time></trkpt>
<trkpt lat="37.461050" lon="-83.617805"><ele>1216.6</ele><time>2026-02-28T12:41:30Z</time></trkpt>
<trkpt lat="37.461600" lon="-83.616971"><ele>1217.2</ele><time>2026-02-28T12:41:45Z</time></trkpt>
<trkpt lat="37.462150" lon="-83.616125"><ele>1217.8</ele><time>2026-02-28T12:42:00Z</time></trkpt>
<trkpt lat="37.462700" lon="-83.615267"><ele>1218.4</ele><time>2026-02-28T12:42:15Z</time></trkpt>
<trkpt lat="37.463250" lon="-83.614397"><ele>1219.0</ele><time>2026-02-28T12:42:30Z</time></trkpt>
<trkpt lat="37.463800" lon="-83.613517"><ele>1219.6</ele><time>2026-02-28T12:42:45Z</time></trkpt>
<trkpt lat="37.464350" lon="-83.612626"><ele>1220.2</ele><time>2026-02-28T12:43:00Z</time></trkpt>
<trkpt lat="37.464900" lon="-83.611725"><ele>1220.8</ele><time>2026-02-28T12:43:15Z</time></trkpt>
<trkpt lat="37.465450" lon="-83.610815"><ele>1221.4</ele><time>2026-02-28T12:43:30Z</time></trkpt>
<trkpt lat="37.466000" lon="-83.609895"><ele>1222.0</ele><time>2026-02-28T12:43:45Z</time></trkpt>
<trkpt lat="37.466550" lon="-83.608968"><ele>1222.6</ele><time>2026-02-28T12:44:00Z</time></trkpt>
<trkpt lat="37.467100" lon="-83.608032"><ele>1223.2</ele><time>2026-02-28T12:44:15Z</time></trkpt>
<trkpt lat="37.467650" lon="-83.607089"><ele>1223.8</ele><time>2026-02-28T12:44:30Z</time></trkpt>
<trkpt lat="37.468200" lon="-83.606140"><ele>1224.4</ele><time>2026-02-28T12:44:45Z</time></trkpt>
<trkpt lat="37.468750" lon="-83.605184"><ele>1225.0</ele><time>2026-02-28T12:45:00Z</time></trkpt>
<trkpt lat="37.469300" lon="-83.604223"><ele>1225.6</ele><time>2026-02-28T12:45:15Z</time></trkpt>
<trkpt lat="37.469850" lon="-83.603257"><ele>1226.2</ele><time>2026-02-28T12:45:30Z</time></trkpt>
<trkpt lat="37.470400" lon="-83.602288"><ele>1226.8</ele><time>2026-02-28T12:45:45Z</time></trkpt>
<trkpt lat="37.470950" lon="-83.601314"><ele>1227.4</ele><time>2026-02-28T12:46:00Z</time></trkpt>
<trkpt lat="37.471500" lon="-83.600338"><ele>1228.0</ele><time>2026-02-28T12:46:15Z</time></trkpt>
<trkpt lat="37.472050" lon="-83.599360"><ele>1228.6</ele><time>2026-02-28T12:46:30Z</time></trkpt>
<trkpt lat="37.472600" lon="-83.598381"><ele>1229.2</ele><time>2026-02-28T12:46:45Z</time></trkpt>
<trkpt lat="37.473150" lon="-83.597401"><ele>1229.8</ele><time>2026-02-28T12:47:00Z</time></trkpt>
<trkpt lat="37.473700" lon="-83.596421"><ele>1230.4</ele><time>2026-02-28T12:47:15Z</time></trkpt>
<trkpt lat="37.474250" lon="-83.595442"><ele>1231.0</ele><time>2026-02-28T12:47:30Z</time></trkpt>
<trkpt lat="37.474800" lon="-83.594465"><ele>1231.6</ele><time>2026-02-28T12:47:45Z</time></trkpt>
<trkpt lat="37.475350" lon="-83.593489"><ele>1232.2</ele><time>2026-02-28T12:48:00Z</time></trkpt>
<trkpt lat="37.475900" lon="-83.592516"><ele>1232.8</ele><time>2026-02-28T12:48:15Z</time></trkpt>
<trkpt lat="37.476450" lon="-83.591547"><ele>1233.4</ele><time>2026-02-28T12:48:30Z</time></trkpt>
<trkpt lat="37.477000" lon="-83.590582"><ele>1234.0</ele><time>2026-02-28T12:48:45Z</time></trkpt>
<trkpt lat="37.477550" lon="-83.589622"><ele>1234.6</ele><time>2026-02-28T12:49:00Z</time></trkpt>
<trkpt lat="37.478100" lon="-83.588668"><ele>1235.2</ele><time>2026-02-28T12:49:15Z</time></trkpt>
<trkpt lat="37.478650" lon="-83.587719"><ele>1235.8</ele><time>2026-02-28T12:49:30Z</time></trkpt>
<trkpt lat="37.479200" lon="-83.586777"><ele>1236.4</ele><time>2026-02-28T12:49:45Z</time></trkpt>
<trkpt lat="37.479750" lon="-83.585843"><ele>1237.0</ele><time>2026-02-28T12:50:00Z</time></trkpt>
<trkpt lat="37.480300" lon="-83.584917"><ele>1237.6</ele><time>2026-02-28T12:50:15Z</time></trkpt>
<trkpt lat="37.480850" lon="-83.583999"><ele>1238.2</ele><time>2026-02-28T12:50:30Z</time></trkpt>
<trkpt lat="37.481400" lon="-83.583090"><ele>1238.8</ele><time>2026-02-28T12:50:45Z</time></trkpt>
<trkpt lat="37.481950" lon="-83.582191"><ele>1239.4</ele><time>2026-02-28T12:51:00Z</time></trkpt>
<trkpt lat="37.482500" lon="-83.581302"><ele>1240.0</ele><time>2026-02-28T12:51:15Z</time></trkpt>
<trkpt lat="37.483050" lon="-83.580423"><ele>1240.6</ele><time>2026-02-28T12:51:30Z</time></trkpt>
<trkpt lat="37.483600" lon="-83.579556"><ele>1241.2</ele><time>2026-02-28T12:51:45Z</time></trkpt>
<trkpt lat="37.484150" lon="-83.578699"><ele>1241.8</ele><time>2026-02-28T12:52:00Z</time></trkpt>
<trkpt lat="37.484700" lon="-83.577855"><ele>1242.4</ele><time>2026-02-28T12:52:15Z</time></trkpt>
<trkpt lat="37.485250" lon="-83.577023"><ele>1243.0</ele><time>2026-02-28T12:52:30Z</time></trkpt>
<trkpt lat="37.485800" lon="-83.576203"><ele>1243.6</ele><time>2026-02-28T12:52:45Z</time></trkpt>
<trkpt lat="37.486350" lon="-83.575396"><ele>1244.2</ele><time>2026-02-28T12:53:00Z</time></trkpt>
<trkpt lat="37.486900" lon="-83.574603"><ele>1244.8</ele><time>2026-02-28T12:53:15Z</time></trkpt>
<trkpt lat="37.487450" lon="-83.573822"><ele>1245.4</ele><time>2026-02-28T12:53:30Z</time></trkpt>
<trkpt lat="37.488000" lon="-83.573055"><ele>1246.0</ele><time>2026-02-28T12:53:45Z</time></trkpt>
<trkpt lat="37.488550" lon="-83.572302"><ele>1246.6</ele><time>2026-02-28T12:54:00Z</time></trkpt>
<trkpt lat="37.489100" lon="-83.571562"><ele>1247.2</ele><time>2026-02-28T12:54:15Z</time></trkpt>
<trkpt lat="37.489650" lon="-83.570837"><ele>1247.8</ele><time>2026-02-28T12:54:30Z</time></trkpt>
<trkpt lat="37.490200" lon="-83.570125"><ele>1248.4</ele><time>2026-02-28T12:54:45Z</time></trkpt>
<trkpt lat="37.490750" lon="-83.569427"><ele>1249.0</ele><time>2026-02-28T12:55:00Z</time></trkpt>
<trkpt lat="37.491300" lon="-83.568744"><ele>1249.6</ele><time>2026-02-28T12:55:15Z</time></trkpt>
<trkpt lat="37.491850" lon="-83.568074"><ele>1250.2</ele><time>2026-02-28T12:55:30Z</time></trkpt>
<trkpt lat="37.492400" lon="-83.567418"><ele>1250.8</ele><time>2026-02-28T12:55:45Z</time></trkpt>
<trkpt lat="37.492950" lon="-83.566776"><ele>1251.4</ele><time>2026-02-28T12:56:00Z</time></trkpt>
<trkpt lat="37.493500" lon="-83.566148"><ele>1252.0</ele><time>2026-02-28T12:56:15Z</time></trkpt>
<trkpt lat="37.494050" lon="-83.565533"><ele>1252.6</ele><time>2026-02-28T12:56:30Z</time></trkpt>
<trkpt lat="37.494600" lon="-83.564931"><ele>1253.2</ele><time>2026-02-28T12:56:45Z</time></trkpt>
<trkpt lat="37.495150" lon="-83.564342"><ele>1253.8</ele><time>2026-02-28T12:57:00Z</time></trkpt>
<trkpt lat="37.495700" lon="-83.563766"><ele>1254.4</ele><time>2026-02-28T12:57:15Z</time></trkpt>
<trkpt lat="37.496250" lon="-83.563202"><ele>1255.0</ele><time>2026-02-28T12:57:30Z</time></trkpt>
<trkpt lat="37.496800" lon="-83.562651"><ele>1255.6</ele><time>2026-02-28T12:57:45Z</time></trkpt>
<trkpt lat="37.497350" lon="-83.562111"><ele>1256.2</ele><time>2026-02-28T12:58:00Z</time></trkpt>
<trkpt lat="37.497900" lon="-83.561582"><ele>1256.8</ele><time>2026-02-28T12:58:15Z</time></trkpt>
<trkpt lat="37.498450" lon="-83.561064"><ele>1257.4</ele><time>2026-02-28T12:58:30Z</time></trkpt>
<trkpt lat="37.499000" lon="-83.560557"><ele>1258.0</ele><time>2026-02-28T12:58:45Z</time></trkpt>
<trkpt lat="37.499550" lon="-83.560059"><ele>1258.6</ele><time>2026-02-28T12:59:00Z</time></trkpt>
<trkpt lat="37.500100" lon="-83.559571"><ele>1259.2</ele><time>2026-02-28T12:59:15Z</time></trkpt>
<trkpt lat="37.500650" lon="-83.559092"><ele>1259.8</ele><time>2026-02-28T12:59:30Z</time></trkpt>
<trkpt lat="37.501200" lon="-83.558621"><ele>1260.4</ele><time>2026-02-28T12:59:45Z</time></trkpt>
<trkpt lat="37.501750" lon="-83.558158"><ele>1261.0</ele><time>2026-02-28T13:00:00Z</time></trkpt>
<trkpt lat="37.502300" lon="-83.557702"><ele>1261.6</ele><time>2026-02-28T13:00:15Z</time></trkpt>
<trkpt lat="37.502850" lon="-83.557252"><ele>1262.2</ele><time>2026-02-28T13:00:30Z</time></trkpt>
<trkpt lat="37.503400" lon="-83.556809"><ele>1262.8</ele><time>2026-02-28T13:00:45Z</time></trkpt>
<trkpt lat="37.503950" lon="-83.556371"><ele>1263.4</ele><time>2026-02-28T13:01:00Z</time></trkpt>
<trkpt lat="37.504500" lon="-83.555937"><ele>1264.0</ele><time>2026-02-28T13:01:15Z</time></trkpt>
<trkpt lat="37.505050" lon="-83.555508"><ele>1264.6</ele><time>2026-02-28T13:01:30Z</time></trkpt>
<trkpt lat="37.505600" lon="-83.555081"><ele>1265.2</ele><time>2026-02-28T13:01:45Z</time></trkpt>
<trkpt lat="37.506150" lon="-83.554658"><ele>1265.8</ele><time>2026-02-28T13:02:00Z</time></trkpt>
<trkpt lat="37.506700" lon="-83.554236"><ele>1266.4</ele><time>2026-02-28T13:02:15Z</time></trkpt>
<trkpt lat="37.507250" lon="-83.553815"><ele>1267.0</ele><time>2026-02-28T13:02:30Z</time></trkpt>
<trkpt lat="37.507800" lon="-83.553395"><ele>1267.6</ele><time>2026-02-28T13:02:45Z</time></trkpt>
<trkpt lat="37.508350" lon="-83.552975"><ele>1268.2</ele><time>2026-02-28T13:03:00Z</time></trkpt>
<trkpt lat="37.508900" lon="-83.552554"><ele>1268.8</ele><time>2026-02-28T13:03:15Z</time></trkpt>
<trkpt lat="37.509450" lon="-83.552131"><ele>1269.4</ele><time>2026-02-28T13:03:30Z</time></trkpt>
<trkpt lat="37.510000" lon="-83.551707"><ele>1270.0</ele><time>2026-02-28T13:03:45Z</time></trkpt>
<trkpt lat="37.510550" lon="-83.551279"><ele>1270.6</ele><time>2026-02-28T13:04:00Z</time></trkpt>
<trkpt lat="37.511100" lon="-83.550847"><ele>1271.2</ele><time>2026-02-28T13:44:00Z</time></trkpt>
<trkpt lat="37.511650" lon="-83.550147"><ele>1271.8</ele><time>2026-02-28T13:44:15Z</time></trkpt>
<trkpt lat="37.512200" lon="-83.549433"><ele>1272.4</ele><time>2026-02-28T13:44:30Z</time></trkpt>
<trkpt lat="37.512750" lon="-83.548705"><ele>1273.0</ele><time>2026-02-28T13:44:45Z</time></trkpt>
<trkpt lat="37.513300" lon="-83.547963"><ele>1273.6</ele><time>2026-02-28T13:45:00Z</time></trkpt>
<trkpt lat="37.513850" lon="-83.547208"><ele>1274.2</ele><time>2026-02-28T13:45:15Z</time></trkpt>
<trkpt lat="37.514400" lon="-83.546438"><ele>1274.8</ele><time>2026-02-28T13:45:30Z</time></trkpt>
<trkpt lat="37.514950" lon="-83.545656"><ele>1275.4</ele><time>2026-02-28T13:45:45Z</time></trkpt>
<trkpt lat="37.515500" lon="-83.544860"><ele>1276.0</ele><time>2026-02-28T13:46:00Z</time></trkpt>
<trkpt lat="37.516050" lon="-83.544051"><ele>1276.6</ele><time>2026-02-28T13:46:15Z</time></trkpt>
<trkpt lat="37.516600" lon="-83.543229"><ele>1277.2</ele><time>2026-02-28T13:46:30Z</time></trkpt>
<trkpt lat="37.517150" lon="-83.542395"><ele>1277.8</ele><time>2026-02-28T13:46:45Z</time></trkpt>
<trkpt lat="37.517700" lon="-83.541548"><ele>1278.4</ele><time>2026-02-28T13:47:00Z</time></trkpt>
<trkpt lat="37.518250" lon="-83.540690"><ele>1279.0</ele><time>2026-02-28T13:47:15Z</time></trkpt>
<trkpt lat="37.518800" lon="-83.539821"><ele>1279.6</ele><time>2026-02-28T13:47:30Z</time></trkpt>
<trkpt lat="37.519350" lon="-83.538940"><ele>1280.2</ele><time>2026-02-28T13:47:45Z</time></trkpt>
<trkpt lat="37.519900" lon="-83.538050"><ele>1280.8</ele><time>2026-02-28T13:48:00Z</time></trkpt>
<trkpt lat="37.520450" lon="-83.537149"><ele>1281.4</ele><time>2026-02-28T13:48:15Z</time></trkpt>
<trkpt lat="37.521000" lon="-83.536238"><ele>1282.0</ele><time>2026-02-28T13:48:30Z</time></trkpt>
<trkpt lat="37.521550" lon="-83.535319"><ele>1282.6</ele><time>2026-02-28T13:48:45Z</time></trkpt>
<trkpt lat="37.522100" lon="-83.534391"><ele>1283.2</ele><time>2026-02-28T13:49:00Z</time></trkpt>
<trkpt lat="37.522650" lon="-83.533456"><ele>1283.8</ele><time>2026-02-28T13:49:15Z</time></trkpt>
<trkpt lat="37.523200" lon="-83.532513"><ele>1284.4</ele><time>2026-02-28T13:49:30Z</time></trkpt>
<trkpt lat="37.523750" lon="-83.531563"><ele>1285.0</ele><time>2026-02-28T13:49:45Z</time></trkpt>
<trkpt lat="37.524300" lon="-83.530608"><ele>1285.6</ele><time>2026-02-28T13:50:00Z</time></trkpt>
<trkpt lat="37.524850" lon="-83.529647"><ele>1286.2</ele><time>2026-02-28T13:50:15Z</time></trkpt>
<trkpt lat="37.525400" lon="-83.528681"><ele>1286.8</ele><time>2026-02-28T13:50:30Z</time></trkpt>
<trkpt lat="37.525950" lon="-83.527711"><ele>1287.4</ele><time>2026-02-28T13:50:45Z</time></trkpt>
<trkpt lat="37.526500" lon="-83.526738"><ele>1288.0</ele><time>2026-02-28T13:51:00Z</time></trkpt>
<trkpt lat="37.527050" lon="-83.525762"><ele>1288.6</ele><time>2026-02-28T13:51:15Z</time></trkpt>
<trkpt lat="37.527600" lon="-83.524784"><ele>1289.2</ele><time>2026-02-28T13:51:30Z</time></trkpt>
<trkpt lat="37.528150" lon="-83.523805"><ele>1289.8</ele><time>2026-02-28T13:51:45Z</time></trkpt>
<trkpt lat="37.528700" lon="-83.522825"><ele>1290.4</ele><time>2026-02-28T13:52:00Z</time></trkpt>
<trkpt lat="37.529250" lon="-83.521845"><ele>1291.0</ele><time>2026-02-28T13:52:15Z</time></trkpt>
<trkpt lat="37.529800" lon="-83.520866"><ele>1291.6</ele><time>2026-02-28T13:52:30Z</time></trkpt>
<trkpt lat="37.530350" lon="-83.519888"><ele>1292.2</ele><time>2026-02-28T13:52:45Z</time></trkpt>
<trkpt lat="37.530900" lon="-83.518913"><ele>1292.8</ele><time>2026-02-28T13:53:00Z</time></trkpt>
<trkpt lat="37.531450" lon="-83.517940"><ele>1293.4</ele><time>2026-02-28T13:53:15Z</time></trkpt>
<trkpt lat="37.532000" lon="-83.516971"><ele>1294.0</ele><time>2026-02-28T13:53:30Z</time></trkpt>
<trkpt lat="37.532550" lon="-83.516006"><ele>1294.6</ele><time>2026-02-28T13:53:45Z</time></trkpt>
<trkpt lat="37.533100" lon="-83.515046"><ele>1295.2</ele><time>2026-02-28T13:54:00Z</time></trkpt>
<trkpt lat="37.533650" lon="-83.514091"><ele>1295.8</ele><time>2026-02-28T13:54:15Z</time></trkpt>
<trkpt lat="37.534200" lon="-83.513143"><ele>1296.4</ele><time>2026-02-28T13:54:30Z</time></trkpt>
<trkpt lat="37.534750" lon="-83.512201"><ele>1297.0</ele><time>2026-02-28T13:54:45Z</time></trkpt>
<trkpt lat="37.535300" lon="-83.511267"><ele>1297.6</ele><time>2026-02-28T13:55:00Z</time></trkpt>
<trkpt lat="37.535850" lon="-83.510340"><ele>1298.2</ele><time>2026-02-28T13:55:15Z</time></trkpt>
<trkpt lat="37.536400" lon="-83.509422"><ele>1298.8</ele><time>2026-02-28T13:55:30Z</time></trkpt>
<trkpt lat="37.536950" lon="-83.508514"><ele>1299.4</ele><time>2026-02-28T13:55:45Z</time></trkpt>
<trkpt lat="37.537500" lon="-83.507614"><ele>1300.0</ele><time>2026-02-28T13:56:00Z</time></trkpt>
<trkpt lat="37.538050" lon="-83.506725"><ele>1300.6</ele><time>2026-02-28T13:56:15Z</time></trkpt>
<trkpt lat="37.538600" lon="-83.505847"><ele>1301.2</ele><time>2026-02-28T13:56:30Z</time></trkpt>
<trkpt lat="37.539150" lon="-83.504979"><ele>1301.8</ele><time>2026-02-28T13:56:45Z</time></trkpt>
<trkpt lat="37.539700" lon="-83.504123"><ele>1302.4</ele><time>2026-02-28T13:57:00Z</time></trkpt>
<trkpt lat="37.540250" lon="-83.503279"><ele>1303.0</ele><time>2026-02-28T13:57:15Z</time></trkpt>
<trkpt lat="37.540800" lon="-83.502446"><ele>1303.6</ele><time>2026-02-28T13:57:30Z</time></trkpt>
<trkpt lat="37.541350" lon="-83.501627"><ele>1304.2</ele><time>2026-02-28T13:57:45Z</time></trkpt>
<trkpt lat="37.541900" lon="-83.500820"><ele>1304.8</ele><time>2026-02-28T13:58:00Z</time></trkpt>
<trkpt lat="37.542450" lon="-83.500026"><ele>1305.4</ele><time>2026-02-28T13:58:15Z</time></trkpt>
<trkpt lat="37.543000" lon="-83.499246"><ele>1306.0</ele><time>2026-02-28T13:58:30Z</time></trkpt>
<trkpt lat="37.543550" lon="-83.498479"><ele>1306.6</ele><time>2026-02-28T13:58:45Z</time></trkpt>
<trkpt lat="37.544100" lon="-83.497725"><ele>1307.2</ele><time>2026-02-28T13:59:00Z</time></trkpt>
<trkpt lat="37.544650" lon="-83.496986"><ele>1307.8</ele><time>2026-02-28T13:59:15Z</time></trkpt>
<trkpt lat="37.545200" lon="-83.496260"><ele>1308.4</ele><time>2026-02-28T13:59:30Z</time></trkpt>
<trkpt lat="37.545750" lon="-83.495549"><ele>1309.0</ele><time>2026-02-28T13:59:45Z</time></trkpt>
<trkpt lat="37.546300" lon="-83.494851"><ele>1309.6</ele><time>2026-02-28T14:00:00Z</time></trkpt>
<trkpt lat="37.546850" lon="-83.494167"><ele>1310.2</ele><time>2026-02-28T14:00:15Z</time></trkpt>
<trkpt lat="37.547400" lon="-83.493498"><ele>1310.8</ele><time>2026-02-28T14:00:30Z</time></trkpt>
<trkpt lat="37.547950" lon="-83.492842"><ele>1311.4</ele><time>2026-02-28T14:00:45Z</time></trkpt>
<trkpt lat="37.548500" lon="-83.492200"><ele>1312.0</ele><time>2026-02-28T14:01:00Z</time></trkpt>
<trkpt lat="37.549050" lon="-83.491571"><ele>1312.6</ele><time>2026-02-28T14:01:15Z</time></trkpt>
<trkpt lat="37.549600" lon="-83.490956"><ele>1313.2</ele><time>2026-02-28T14:01:30Z</time></trkpt>
<trkpt lat="37.550150" lon="-83.490354"><ele>1313.8</ele><time>2026-02-28T14:01:45Z</time></trkpt>
<trkpt lat="37.550700" lon="-83.489766"><ele>1314.4</ele><time>2026-02-28T14:02:00Z</time></trkpt>
<trkpt lat="37.551250" lon="-83.489190"><ele>1315.0</ele><time>2026-02-28T14:02:15Z</time></trkpt>
<trkpt lat="37.551800" lon="-83.488626"><ele>1315.6</ele><time>2026-02-28T14:02:30Z</time></trkpt>
<trkpt lat="37.552350" lon="-83.488074"><ele>1316.2</ele><time>2026-02-28T14:02:45Z</time></trkpt>
<trkpt lat="37.552900" lon="-83.487534"><ele>1316.8</ele><time>2026-02-28T14:03:00Z</time></trkpt>
<trkpt lat="37.553450" lon="-83.487006"><ele>1317.4</ele><time>2026-02-28T14:03:15Z</time></trkpt>
<trkpt lat="37.554000" lon="-83.486488"><ele>1318.0</ele><time>2026-02-28T14:03:30Z</time></trkpt>
<trkpt lat="37.554550" lon="-83.485980"><ele>1318.6</ele><time>2026-02-28T14:03:45Z</time></trkpt>
<trkpt lat="37.555100" lon="-83.485483"><ele>1319.2</ele><time>2026-02-28T14:04:00Z</time></trkpt>
</trkseg></trk></gpx>